
STARLINK-31620          
1 59460U 24068F   25020.51890170  .00000992  00000+0  31002-4 0  9993
2 59460  42.9971 210.4836 0001203 263.1372  96.9348 15.40707282 45309
STARLINK-31511          
1 59462U 24068H   25020.56805006  .00002363  00000+0  63796-4 0  9993
2 59462  42.9996 209.9877 0001216 252.9367 107.1356 15.40706022 45316
STARLINK-31364          
1 59463U 24068J   25019.94664797  .00000953  00000+0  30079-4 0  9995
2 59463  43.0014 213.9339 0001596 263.3024  96.7651 15.40706822 45213
STARLINK-31597          
1 59464U 24068K   25020.22375588 -.00001360  00000+0 -25286-4 0  9995
2 59464  42.9994 211.7032 0001729 255.5268 104.5396 15.40698425 45219
STARLINK-31621          
1 59465U 24068L   25020.55462566  .00000028  00000+0  79362-5 0  9998
2 59465  43.0012 209.8977 0001598 264.1016  95.9659 15.40690666 45315
STARLINK-31462          
1 59466U 24068M   25020.54339942  .00004143  00000+0  10637-3 0  9999
2 59466  43.0010 209.7872 0001462 282.1317  77.9375 15.40706018 45315
STARLINK-31592          
1 59467U 24068N   25020.56581646  .00001489  00000+0  42915-4 0  9997
2 59467  43.0012 209.9763 0002165 291.2340  68.8285 15.40701965 45312
STARLINK-31267          
1 59468U 24068P   25020.58149143  .00003171  00000+0  83160-4 0  9999
2 59468  43.0031 210.0944 0002234 273.9512  86.1089 15.40699912 45316
STARLINK-31381          
1 59469U 24068Q   25020.51443035  .00000228  00000+0  12725-4 0  9999
2 59469  43.0007 210.4504 0001534 281.8783  78.1902 15.40693565 45308
STARLINK-31546          
1 59470U 24068R   25020.59269684 -.00005701  00000+0 -12921-3 0  9995
2 59470  42.9985 210.1760 0001468 276.2633  83.8056 15.40725348 45311
STARLINK-31575          
1 59471U 24068S   25020.52116056  .00004445  00000+0  11373-3 0  9995
2 59471  43.0000 210.5002 0002020 269.3709  90.6916 15.40666282 45308
STARLINK-31610          
1 59473U 24068U   25020.55012848  .00016752  00000+0  40732-3 0  9999
2 59473  42.9981 209.8476 0000579 211.7928 148.2894 15.40705429 45316
STARLINK-31581          
1 59474U 24068V   25020.56103191  .00002265  00000+0  58222-4 0  9991
2 59474  43.0032 209.9378 0002872 278.5327  81.5205 15.42401064 45315
STARLINK-31566          
1 59475U 24068W   25020.53892460  .00003305  00000+0  86279-4 0  9992
2 59475  42.9975 209.7634 0000344 201.1388 158.9455 15.40717668 45318
STARLINK-31515          
1 59476U 24068X   25020.54566037  .00000344  00000+0  15508-4 0  9999
2 59476  42.9994 209.8151 0001695 262.6979  97.3685 15.40691565 45311
STARLINK-31531          
1 59477U 24068Y   25020.45456458 -.00025166  00000+0 -13422-3 0  9998
2 59477  42.9863 184.2780 0001267 268.0028  92.0698 15.79122689 45595
DUMMY SAT 3             
1 59479U 24069A   25020.05565102  .00000012  00000+0  00000+0 0  9999
2 59479   0.7760  86.9622 0049839 119.0804 153.6871  0.98606446  2753
WSF-M                   
1 59481U 24070A   25020.57247664  .00000195  00000+0  11092-3 0  9990
2 59481  98.7199  30.4471 0004943  14.7271 345.4049 14.20600654 40318
STARLINK-31753          
1 59484U 24071A   25020.53003564 -.00022678  00000+0 -53537-3 0  9991
2 59484  43.0019 169.0226 0002276 253.4919 106.5688 15.40801890 44834
STARLINK-31653          
1 59485U 24071B   25020.58334491 -.00917910  00000+0 -47098-2 0  9999
2 59485  42.9915 145.8695 0011801 341.7320 293.0323 15.82408648  5814
STARLINK-31733          
1 59486U 24071C   25020.44951409  .00001081  00000+0  33137-4 0  9991
2 59486  43.0026 169.2753 0001664 254.9000 105.1673 15.40699393 44829
STARLINK-31657          
1 59487U 24071D   25020.52333958 -.00004404  00000+0 -98328-4 0  9991
2 59487  43.0011 168.9723 0003231 300.7240  59.3298 15.40659394 44836
STARLINK-31754          
1 59488U 24071E   25020.54557510  .00000140  00000+0  10603-4 0  9997
2 59488  43.0000 168.2700 0000941 272.2681  87.8068 15.40697423 44847
STARLINK-31638          
1 59489U 24071F   25020.42487232 -.00008221  00000+0 -18947-3 0  9996
2 59489  43.0034 169.0875 0002091 271.8028  88.2589 15.40742440 44826
STARLINK-31670          
1 59490U 24071G   25019.89518579  .00000456  00000+0  18183-4 0  9999
2 59490  43.0008 172.8727 0001301 263.4197  96.6512 15.40696194 44692
STARLINK-31712          
1 59491U 24071H   25020.54570818  .00024437  00000+0  57645-3 0  9998
2 59491  43.0023 168.2788 0002906 291.6753  68.3794 15.41418811 44843
STARLINK-31684          
1 59492U 24071J   25019.76090921 -.00000939  00000+0 -15209-4 0  9997
2 59492  43.0017 172.6974 0001710 260.2810  99.7853 15.40693818 44723
STARLINK-31678          
1 59493U 24071K   25020.46730446 -.00001263  00000+0 -22992-4 0  9998
2 59493  42.9995 168.5401 0001249 267.0348  93.0366 15.40697520 43655
STARLINK-31744          
1 59494U 24071L   25020.40471557  .00000633  00000+0  22432-4 0  9995
2 59494  43.0006 168.9290 0001511 277.6866  82.3819 15.40691543 44828
STARLINK-31719          
1 59495U 24071M   25020.51883649 -.00001042  00000+0 -17684-4 0  9997
2 59495  43.0022 168.9337 0002018 267.9115  92.1510 15.40687018 44831
STARLINK-31728          
1 59496U 24071N   25020.45624113  .00000343  00000+0  15493-4 0  9997
2 59496  43.0028 169.3253 0001808 259.8814 100.1838 15.40692523 44821
STARLINK-31720          
1 59497U 24071P   25020.43830250  .00001924  00000+0  53308-4 0  9990
2 59497  42.9962 169.1902 0001458 268.4049  91.6640 15.40706858 44825
STARLINK-31731          
1 59498U 24071Q   25020.57693801  .00000136  00000+0  10534-4 0  9993
2 59498  43.0007 168.5108 0001628 276.9777  83.0894 15.40694166 44846
STARLINK-31742          
1 59499U 24071R   25020.44054349  .00004509  00000+0  11509-3 0  9998
2 59499  43.0024 169.2033 0001225 265.7357  94.3360 15.40712341 44821
STARLINK-31512          
1 59500U 24071S   25020.58334491  .00232868  00000+0  15334-2 0  9995
2 59500  42.9970 154.7585 0022681 341.7269 284.6557 15.73844972  5987
STARLINK-31458          
1 59501U 24071T   25019.47260093  .00000801  00000+0  26440-4 0  9990
2 59501  43.0042 174.8411 0001761 267.4262  92.6393 15.40703578 44678
STARLINK-31357          
1 59502U 24071U   25020.10744906  .00003051  00000+0  80238-4 0  9998
2 59502  42.9996 171.0034 0001651 273.0256  87.0411 15.40710883 44776
STARLINK-31508          
1 59503U 24071V   25020.10296492  .00000092  00000+0  94525-5 0  9998
2 59503  42.9995 170.9706 0001401 283.0480  77.0220 15.40712359 44770
STARLINK-31535          
1 59504U 24071W   25019.87900705  .00000233  00000+0  12860-4 0  9998
2 59504  43.0030 171.8605 0002133 278.9879  81.0736 15.40702267 44706
STARLINK-31533          
1 59505U 24071X   25020.55228440  .00001171  00000+0  35283-4 0  9991
2 59505  42.9985 168.3219 0001397 282.3762  77.6938 15.40709447 44844
STARLINK-31524          
1 59506U 24071Y   25019.68527852  .00117047  00000+0  14836-2 0  9992
2 59506  42.9929 165.0981 0004501 324.6658  35.3906 15.58334926 44804
SUPERVIEW NEO-3 01      
1 59510U 24072A   25020.54107585  .00023706  00000+0  10272-2 0  9990
2 59510  97.4617 100.3904 0002439 101.6698 258.4812 15.22382831 42665
STARLINK-31635          
1 59511U 24073A   25020.43587584 -.00006510  00000+0 -14877-3 0  9993
2 59511  43.0004 138.8018 0004191 288.6691  71.3710 15.40670223 42890
STARLINK-31650          
1 59512U 24073B   25020.46709114 -.00014086  00000+0 -32971-3 0  9994
2 59512  42.9988 138.1650 0001770 270.7082  89.3572 15.40775558 42905
STARLINK-31658          
1 59513U 24073C   25020.28704991  .00000119  00000+0  10124-4 0  9990
2 59513  43.0026 104.7111 0001347 267.0184  93.0518 15.40696847 43269
STARLINK-31664          
1 59514U 24073D   25020.42281997  .00080634  00000+0  11683-2 0  9992
2 59514  42.9989 133.4507 0002296 323.5176  36.5529 15.54909454 42952
STARLINK-31669          
1 59515U 24073E   25020.36428492  .00005173  00000+0  13086-3 0  9994
2 59515  43.0027 139.1221 0001594 275.1363  84.9312 15.40734772 42887
STARLINK-31671          
1 59516U 24073F   25019.73605560  .00001062  00000+0  32679-4 0  9990
2 59516  43.0009 142.1349 0001172 266.4313  93.6410 15.40697546 42796
STARLINK-31674          
1 59517U 24073G   25019.70930850 -.00000106  00000+0  47383-5 0  9999
2 59517  43.0036 142.8046 0001919 279.3150  80.7490 15.40704078 42782
STARLINK-31679          
1 59519U 24073J   25020.34188339  .00003975  00000+0  10228-3 0  9992
2 59519  43.0040 138.9478 0001155 248.8526 111.2207 15.40728219 42884
STARLINK-31370          
1 59520U 24073K   25019.73829953 -.00000507  00000+0 -48720-5 0  9999
2 59520  43.0001 142.1570 0001393 277.2850  82.7849 15.40697860 42794
STARLINK-31404          
1 59521U 24073L   25019.73157371  .00001533  00000+0  43950-4 0  9995
2 59521  43.0007 142.1014 0001226 280.4395  79.6324 15.40693865 42793
STARLINK-31453          
1 59522U 24073M   25020.58334491 -.01348204  00000+0 -26645-1 0  9992
2 59522  42.9995 119.9846 0001345 280.3222 327.6723 15.49376622  6026
STARLINK-31476          
1 59523U 24073N   25019.61984103  .00001278  00000+0  37852-4 0  9995
2 59523  43.0018 142.9853 0001041 272.0482  88.0255 15.40698803 42777
STARLINK-31376          
1 59524U 24073P   25020.36880625  .00004510  00000+0  11518-3 0  9996
2 59524  42.9970 139.1530 0002145 301.5246  58.5400 15.40693643 42888
STARLINK-31538          
1 59525U 24073Q   25020.36207007  .00002340  00000+0  63250-4 0  9994
2 59525  43.0016 139.1009 0000972 238.4901 121.5860 15.40701534 42885
STARLINK-31564          
1 59526U 24073R   25020.36653856  .00001396  00000+0  40660-4 0  9992
2 59526  43.0010 139.1353 0001699 233.5623 126.5077 15.40723546 42888
STARLINK-31452          
1 59527U 24073S   25020.31725960  .00001856  00000+0  51664-4 0  9991
2 59527  43.0012 138.7551 0001262 238.9237 121.1496 15.40707217 42885
